NORAD_CAT_ID,OBJECT_NAME,OBJECT_TYPE,EPOCH,MEAN_MOTION,ECCENTRICITY,INCLINATION,RA_OF_ASC_NODE,ARG_OF_PERICENTER,MEAN_ANOMALY,BSTAR,MEAN_MOTION_DOT,MEAN_MOTION_DDOT,TLE_LINE0,TLE_LINE1,TLE_LINE2,SEMIMAJOR_AXIS,PERIOD,APOGEE,PERIGEE,DECAYED
51794.0,STARLINK-3573,PAYLOAD,2024-08-16 04:01:36,15.08844995,0.0001036,53.2171,30.2929,91.1702,268.9409,0.00027992,4.171e-05,0.0,0 STARLINK-3573,1 51794U 22017AC  24229.16778772  .00004171  00000-0  27992-3 0  9997,2 51794  53.2171  30.2929 0001036  91.1702 268.9409 15.08844995137790,6917.865,95.437,540.447,539.013,0.0
51794.0,STARLINK-3573,PAYLOAD,2024-08-16 11:58:32,15.08840295,0.0001032,53.2173,28.8054,93.3138,266.7973,0.00037314,5.656e-05,0.0,0 STARLINK-3573,1 51794U 22017AC  24229.49899043  .00005656  00000-0  37314-3 0  9996,2 51794  53.2173  28.8054 0001032  93.3138 266.7973 15.08840295137844,6917.879,95.438,540.458,539.031,0.0
51794.0,STARLINK-3573,PAYLOAD,2024-08-16 19:55:27,15.08856462,0.0001392,53.2153,27.3145,82.6815,277.4335,0.00024929,3.683e-05,0.0,0 STARLINK-3573,1 51794U 22017AC  24229.83018093  .00003683  00000-0  24929-3 0  9998,2 51794  53.2153  27.3145 0001392  82.6815 277.4335 15.08856462137898,6917.83,95.437,540.658,538.732,0.0
51794.0,STARLINK-3573,PAYLOAD,2024-08-17 19:46:15,15.08832789,8.66e-05,53.2161,22.8566,118.8466,241.2614,-3.7475e-05,-8.84e-06,0.0,0 STARLINK-3573,1 51794U 22017AC  24230.82379185 -.00000884  00000-0 -37475-4 0  9994,2 51794  53.2161  22.8566 0000866 118.8466 241.2614 15.08832789138046,6917.902,95.438,540.367,539.168,0.0
51794.0,STARLINK-3573,PAYLOAD,2024-08-18 13:15:29,15.08846277,7.85e-05,53.2183,19.5909,76.2543,283.8537,0.00017754,2.539e-05,0.0,0 STARLINK-3573,1 51794U 22017AC  24231.55242844  .00002539  00000-0  17754-3 0  9990,2 51794  53.2183  19.5909 0000785  76.2543 283.8537 15.08846277138152,6917.861,95.437,540.269,539.183,0.0
51794.0,STARLINK-3573,PAYLOAD,2024-08-18 16:26:15,15.08859806,0.0001143,53.2181,18.989,109.6578,250.4538,0.00027021,4.017e-05,0.0,0 STARLINK-3573,1 51794U 22017AC  24231.68489734  .00004017  00000-0  27021-3 0  9996,2 51794  53.2181  18.9890 0001143 109.6578 250.4538 15.08859806138175,6917.82,95.436,540.476,538.894,0.0
51794.0,STARLINK-3573,PAYLOAD,2024-08-20 14:32:27,15.0884954,0.000133,53.2183,10.3672,84.9055,275.2089,5.9743e-05,6.63e-06,0.0,0 STARLINK-3573,1 51794U 22017AC  24233.60586997  .00000663  00000-0  59743-4 0  9999,2 51794  53.2183  10.3672 0001330  84.9055 275.2089 15.08849540138466,6917.851,95.437,540.636,538.796,0.0
51794.0,STARLINK-3573,PAYLOAD,2024-08-20 16:07:50,15.08853052,0.0001345,53.2182,10.0691,93.6,266.5146,0.00012516,1.705e-05,0.0,0 STARLINK-3573,1 51794U 22017AC  24233.67210812  .00001705  00000-0  12516-3 0  9990,2 51794  53.2182  10.0691 0001345  93.6000 266.5146 15.08853052138477,6917.84,95.437,540.636,538.775,0.0
51794.0,STARLINK-3573,PAYLOAD,2024-08-21 12:47:51,15.08836414,0.0001317,53.2179,6.2045,88.2058,271.9085,-4.6459e-05,-1.027e-05,0.0,0 STARLINK-3573,1 51794U 22017AC  24234.53324045 -.00001027  00000-0 -46459-4 0  9993,2 51794  53.2179   6.2045 0001317  88.2058 271.9085 15.08836414138605,6917.891,95.438,540.667,538.845,0.0
51794.0,STARLINK-3573,PAYLOAD,2024-08-21 14:23:15,15.08836596,0.0001278,53.2178,5.9071,88.2749,271.839,-8.1853e-05,-1.59e-05,0.0,0 STARLINK-3573,1 51794U 22017AC  24234.59948086 -.00001590  00000-0 -81853-4 0  9998,2 51794  53.2178   5.9071 0001278  88.2749 271.8390 15.08836596138612,6917.891,95.438,540.64,538.872,0.0
